ISS (ZARYA)             
1 25544U 98067A   23042.53025486  .00021490  00000+0  38507-3 0  9995
2 25544  51.6425 230.9302 0008586 339.1150 115.5752 15.49851508382301
